NORAD_CAT_ID,OBJECT_NAME,OBJECT_TYPE,EPOCH,MEAN_MOTION,ECCENTRICITY,INCLINATION,RA_OF_ASC_NODE,ARG_OF_PERICENTER,MEAN_ANOMALY,BSTAR,MEAN_MOTION_DOT,MEAN_MOTION_DDOT,TLE_LINE0,TLE_LINE1,TLE_LINE2,SEMIMAJOR_AXIS,PERIOD,APOGEE,PERIGEE,DECAYED
51743.0,STARLINK-3512,PAYLOAD,2022-04-15 13:16:27,15.73250257,0.0001974,53.2138,237.4921,40.2687,319.8479,7.8435e-05,0.00010424,0.0,0 STARLINK-3512,1 51743U 22016AF  22105.55309721  .00010424  00000-0  78435-4 0  9995,2 51743  53.2138 237.4921 0001974  40.2687 319.8479 15.73250257  8499,6727.752,91.53,350.945,348.289,0.0
51743.0,STARLINK-3512,PAYLOAD,2022-04-15 14:00:01,15.73287119,0.0001872,53.213,237.3431,39.4412,132.0313,-0.00029431,-0.00041877,0.0,0 STARLINK-3512,1 51743U 22016AF  22105.58334491 -.00041877  00000-0 -29431-3 0  9999,2 51743  53.2130 237.3431 0001872  39.4412 132.0313 15.73287119  9635,6727.647,91.528,350.771,348.25199999999984,0.0
51743.0,STARLINK-3512,PAYLOAD,2022-04-15 22:00:00,15.73280249,0.0001738,53.2125,235.6935,31.6455,228.8506,-0.00081214,-0.0011347,0.0,0 STARLINK-3512,1 51743U 22016AF  22105.91667824 -.00113470  00000-0 -81214-3 0  9991,2 51743  53.2125 235.6935 0001738  31.6455 228.8506 15.73280249  3685,6727.666,91.529,350.701,348.362,0.0
51743.0,STARLINK-3512,PAYLOAD,2022-04-16 04:00:00,15.73201191,0.0001472,53.2129,234.4547,29.5625,207.6769,-0.00067059,-0.00093699,0.0,0 STARLINK-3512,1 51743U 22016AF  22106.16667824 -.00093699  00000-0 -67059-3 0  9990,2 51743  53.2129 234.4547 0001472  29.5625 207.6769 15.73201191  9721,6727.892,91.533,350.747,348.766,0.0
51743.0,STARLINK-3512,PAYLOAD,2022-04-16 14:00:01,15.73064013,0.0001724,53.2131,232.3942,31.0061,47.3552,2.2008000000000007e-05,2.452e-05,0.0,0 STARLINK-3512,1 51743U 22016AF  22106.58334491  .00002452  00000-0  22008-4 0  9998,2 51743  53.2131 232.3942 0001724  31.0061  47.3552 15.73064013  3703,6728.283,91.541,351.30800000000005,348.98800000000006,0.0
51743.0,STARLINK-3512,PAYLOAD,2022-04-16 22:00:01,15.73090717,0.0001835,53.2132,230.7452,29.5904,137.5447,0.00047913,0.00066846,0.0,0 STARLINK-3512,1 51743U 22016AF  22106.91668981  .00066846  00000-0  47913-3 0  9997,2 51743  53.2132 230.7452 0001835  29.5904 137.5447 15.73090717  3708,6728.206999999999,91.54,351.306,348.837,0.0
51743.0,STARLINK-3512,PAYLOAD,2022-04-17 06:00:00,15.73127828,0.0001706999999999,53.2134,229.0938,31.0586,224.8544,0.00078867,0.00111197,0.0,0 STARLINK-3512,1 51743U 22016AF  22107.25001157  .00111197  00000-0  78867-3 0  9993,2 51743  53.2134 229.0938 0001707  31.0586 224.8544 15.73127828  9890,6728.101,91.537,351.11400000000015,348.81699999999995,0.0
51743.0,STARLINK-3512,PAYLOAD,2022-04-17 14:00:01,15.73178544,0.0001957,53.2134,227.4463,30.3767,314.3866,0.00017022,0.00023314,0.0,0 STARLINK-3512,1 51743U 22016AF  22107.58334491  .00023314  00000-0  17022-3 0  9998,2 51743  53.2134 227.4463 0001957  30.3767 314.3866 15.73178544  9944,6727.956,91.534,351.13800000000015,348.505,0.0
51743.0,STARLINK-3512,PAYLOAD,2022-04-17 22:00:00,15.73260194,0.0002002,53.2128,225.7965,25.9222,47.7968,4.6843e-06,3.7e-07,0.0,0 STARLINK-3512,1 51743U 22016AF  22107.91667824  .00000037  00000-0  46843-5 0  9996,2 51743  53.2128 225.7965 0002002  25.9222  47.7968 15.73260194  3692,6727.724,91.53,350.935,348.242,0.0
51743.0,STARLINK-3512,PAYLOAD,2022-04-18 08:00:01,15.73217847,0.0001713,53.2132,223.733,26.6428,248.3125,0.00043315,0.00060658,0.0,0 STARLINK-3512,1 51743U 22016AF  22108.33334491  .00060658  00000-0  43315-3 0  9998,2 51743  53.2132 223.7330 0001713  26.6428 248.3125 15.73217847 10065,6727.844,91.532,350.862,348.557,0.0
51743.0,STARLINK-3512,PAYLOAD,2022-04-18 14:00:01,15.732863,0.000196,53.2131,222.4975,23.7126,227.9803,-0.00063108,-0.00088596,0.0,0 STARLINK-3512,1 51743U 22016AF  22108.58334491 -.00088596  00000-0 -63108-3 0  9990,2 51743  53.2131 222.4975 0001960  23.7126 227.9803 15.73286300  3701,6727.649,91.528,350.833,348.196,0.0
51743.0,STARLINK-3512,PAYLOAD,2022-04-18 20:00:01,15.73231692,0.0002076,53.2129,221.2606,21.2785,207.1672,-0.00014525,-0.00020985,0.0,0 STARLINK-3512,1 51743U 22016AF  22108.83334491 -.00020985  00000-0 -14525-3 0  9995,2 51743  53.2129 221.2606 0002076  21.2785 207.1672 15.73231692 10143,6727.805,91.531,351.06699999999995,348.273,0.0
51743.0,STARLINK-3512,PAYLOAD,2022-04-18 22:00:00,15.73228312,0.0002038,53.2131,220.8476,22.1196,318.5673,-0.00012958,-0.0001879,0.0,0 STARLINK-3512,1 51743U 22016AF  22108.91667824 -.00018790  00000-0 -12958-3 0  9992,2 51743  53.2131 220.8476 0002038  22.1196 318.5673 15.73228312  3707,6727.814,91.532,351.051,348.30800000000005,0.0
51743.0,STARLINK-3512,PAYLOAD,2022-04-19 14:00:01,15.73215583,0.0002278,53.2134,217.5477,26.876,131.6992,-3.4629e-05,-5.482e-05,0.0,0 STARLINK-3512,1 51743U 22016AF  22109.58334491 -.00005482  00000-0 -34629-4 0  9991,2 51743  53.2134 217.5477 0002278  26.8760 131.6992 15.73215583  3757,6727.851,91.532,351.24800000000016,348.18300000000005,0.0
51743.0,STARLINK-3512,PAYLOAD,2022-04-19 22:00:00,15.73236565,0.0002158,53.2123,215.8985,20.1767,227.3567,-0.00043569,-0.00061425,0.0,0 STARLINK-3512,1 51743U 22016AF  22109.91667824 -.00061425  00000-0 -43569-3 0  9998,2 51743  53.2123 215.8985 0002158  20.1767 227.3567 15.73236565 10315,6727.791,91.531,351.108,348.204,0.0
51743.0,STARLINK-3512,PAYLOAD,2022-04-20 14:00:01,15.73233443,0.000226,53.2126,212.6002,18.07,47.3126,-0.00050423,-0.00070904,0.0,0 STARLINK-3512,1 51743U 22016AF  22110.58334491 -.00070904  00000-0 -50423-3 0  9993,2 51743  53.2126 212.6002 0002260  18.0700  47.3126 15.73233443 10414,6727.8,91.531,351.185,348.144,0.0
51743.0,STARLINK-3512,PAYLOAD,2022-04-20 22:00:00,15.73213868,0.0002289,53.2125,210.9499,19.3994,134.9042,-0.00026155,-0.00037193,0.0,0 STARLINK-3512,1 51743U 22016AF  22110.91667824 -.00037193  00000-0 -26155-3 0  9997,2 51743  53.2125 210.9499 0002289  19.3994 134.9042 15.73213868  3684,6727.856,91.532,351.261,348.181,0.0
51743.0,STARLINK-3512,PAYLOAD,2022-04-21 06:00:00,15.72773257,0.0002336,53.2159,209.2859,26.1009,217.24,0.0040024,0.00591646,0.0,0 STARLINK-3512,1 51743U 22016AF  22111.25001157  .00591646  00000-0  40024-2 0  9992,2 51743  53.2159 209.2859 0002336  26.1009 217.2400 15.72773257 10524,6729.111999999999,91.558,352.5490000000001,349.405,0.0
51743.0,STARLINK-3512,PAYLOAD,2022-04-21 14:00:01,15.7320184,0.0002506,53.2126,207.6513,18.1604,313.9832,6.934600000000001e-05,9.123e-05,0.0,0 STARLINK-3512,1 51743U 22016AF  22111.58334491  .00009123  00000-0  69346-4 0  9992,2 51743  53.2126 207.6513 0002506  18.1604 313.9832 15.73201840  3719,6727.89,91.533,351.441,348.069,0.0
51743.0,STARLINK-3512,PAYLOAD,2022-04-21 22:00:00,15.73220381,0.0002498,53.2119,206.0008,20.0661,41.0365,8.1506e-05,0.00010843,0.0,0 STARLINK-3512,1 51743U 22016AF  22111.91667824  .00010843  00000-0  81506-4 0  9991,2 51743  53.2119 206.0008 0002498  20.0661  41.0365 15.73220381  3685,6727.837,91.532,351.3830000000001,348.021,0.0
51743.0,STARLINK-3512,PAYLOAD,2022-04-22 06:00:00,15.73263945,0.0002375,53.2121,204.3494,24.2756,125.7757,4.5165e-05,5.739e-05,0.0,0 STARLINK-3512,1 51743U 22016AF  22112.25001157  .00005739  00000-0  45165-4 0  9999,2 51743  53.2121 204.3494 0002375  24.2756 125.7757 15.73263945 10689,6727.7130000000025,91.529,351.176,347.98,0.0
51743.0,STARLINK-3512,PAYLOAD,2022-04-22 14:00:01,15.73250604,0.0002637,53.2123,202.7025,19.4624,219.5918,-0.00030838,-0.00043779,0.0,0 STARLINK-3512,1 51743U 22016AF  22112.58334491 -.00043779  00000-0 -30838-3 0  9993,2 51743  53.2123 202.7025 0002637  19.4624 219.5918 15.73250604  3719,6727.751,91.53,351.39,347.842,0.0
51743.0,STARLINK-3512,PAYLOAD,2022-04-22 16:00:00,15.7323976,0.0002683,53.2126,202.2894,18.6267,332.6752,-0.00023604,-0.00033679,0.0,0 STARLINK-3512,1 51743U 22016AF  22112.66667824 -.00033679  00000-0 -23604-3 0  9992,2 51743  53.2126 202.2894 0002683  18.6267 332.6752 15.73239760 10740,6727.781999999997,91.531,351.452,347.842,0.0
51743.0,STARLINK-3512,PAYLOAD,2022-04-23 06:00:02,15.73126508,0.0002453,53.2128,199.401,15.7818,41.2009,0.00042536,0.00059316,0.0,0 STARLINK-3512,1 51743U 22016AF  22113.25002315  .00059316  00000-0  42536-3 0  9995,2 51743  53.2128 199.4010 0002453  15.7818  41.2009 15.73126508 10837,6728.105,91.537,351.62,348.319,0.0
51743.0,STARLINK-3512,PAYLOAD,2022-04-23 14:00:01,15.73149463,0.0002813,53.2127,197.7536,15.0144,130.7655,0.0005761,0.00080848,0.0,0 STARLINK-3512,1 51743U 22016AF  22113.58334491  .00080848  00000-0  57610-3 0  9997,2 51743  53.2127 197.7536 0002813  15.0144 130.7655 15.73149463  3664,6728.0390000000025,91.536,351.797,348.01199999999994,0.0
51743.0,STARLINK-3512,PAYLOAD,2022-04-24 06:00:00,15.73212922,0.0002672,53.2126,194.4525,20.8207,302.8259,0.00038597,0.00053932,0.0,0 STARLINK-3512,1 51743U 22016AF  22114.25001157  .00053932  00000-0  38597-3 0  9999,2 51743  53.2126 194.4525 0002672  20.8207 302.8259 15.73212922 10999,6727.858,91.532,351.521,347.926,0.0
51743.0,STARLINK-3512,PAYLOAD,2022-04-24 14:00:01,15.73325395,0.0003077,53.2144,192.7985,18.2112,34.3909,-0.0018364,-0.00252227,0.0,0 STARLINK-3512,1 51743U 22016AF  22114.58334491 -.00252227  00000-0 -18364-2 0  9994,2 51743  53.2144 192.7985 0003077  18.2112  34.3909 15.73325395 11041,6727.538000000001,91.526,351.473,347.333,0.0
51743.0,STARLINK-3512,PAYLOAD,2022-04-24 22:00:00,15.7287108,0.0002587,53.2161,191.14,15.0792,126.568,-0.00013639,-0.00019452,0.0,0 STARLINK-3512,1 51743U 22016AF  22114.91667824 -.00019452  00000-0 -13639-3 0  9992,2 51743  53.2161 191.1400 0002587  15.0792 126.5680 15.72871080 11102,6728.833000000001,91.552,352.439,348.957,0.0
51743.0,STARLINK-3512,PAYLOAD,2022-04-25 06:00:00,15.72947531,0.0002838,53.2176,189.4831,13.9951,216.1885,-0.0056303,-0.00719122,0.0,0 STARLINK-3512,1 51743U 22016AF  22115.25001157 -.00719122  00000-0 -56303-2 0  9996,2 51743  53.2176 189.4831 0002838  13.9951 216.1885 15.72947531 11152,6728.615,91.548,352.39,348.57,0.0
